{
  "norad_id": 62139,
  "name": "STARLINK-32529",
  "history": [
    {
      "epoch": "2026-03-28T22:52:48.715104",
      "apogee_km": 484.2121363564638,
      "perigee_km": 481.96851502096433,
      "latitude_deg": -30.487184939649172,
      "longitude_deg": 125.42079456010833,
      "semi_major_axis_km": 6861.227325688714,
      "eccentricity": 0.0001635,
      "inclination_deg": 43.0032,
      "raan_deg": 49.552,
      "arg_perigee_deg": 280.621,
      "mean_anomaly_deg": 79.4458,
      "mean_motion_rev_day": 15.27566231
    }
  ]
}